OBJECT_NAME,OBJECT_ID,EPOCH,MEAN_MOTION,ECCENTRICITY,INCLINATION,RA_OF_ASC_NODE,ARG_OF_PERICENTER,MEAN_ANOMALY,EPHEMERIS_TYPE,CLASSIFICATION_TYPE,NORAD_CAT_ID,ELEMENT_SET_NO,REV_AT_EPOCH,BSTAR,MEAN_MOTION_DOT,MEAN_MOTION_DDOT
ALPHASAT,2013-038A,2026-07-12T22:11:02.598432,1.00272190,.00022661,2.9991,1.1816,138.1217,149.1345,0,U,39215,999,4427,0,.132E-5,0
INSAT-3D,2013-038B,2026-07-13T13:47:54.386592,1.00269192,.00005094,1.9917,82.2079,84.9998,100.7299,0,U,39216,999,4734,0,-.345E-5,0
WGS F6 (USA 244),2013-041A,2026-07-13T12:24:28.939968,1.00271605,.00005878,0.0183,32.8266,185.5744,123.9243,0,U,39222,999,4632,0,.85E-6,0
ES'HAIL 1,2013-044A,2026-07-13T13:35:07.645344,1.00274098,.00021373,0.0517,339.9913,136.7805,43.9814,0,U,39233,999,4689,0,.14E-5,0
GSAT-7,2013-044B,2026-07-13T13:48:57.132000,1.00271168,.00032411,0.1466,89.7043,176.9531,305.9811,0,U,39234,999,4552,0,-.81E-6,0
AMOS-4,2013-045A,2026-07-13T13:37:38.873856,1.00270339,.00022484,0.0346,257.0951,184.9711,118.7917,0,U,39237,999,4722,0,.4E-7,0
AEHF-3 (USA 246),2013-050A,2026-07-13T12:17:10.474656,1.00270630,.00883937,5.3566,66.9430,187.6886,96.7762,0,U,39256,999,4591,0,.21E-6,0
ASTRA 2E,2013-056A,2026-07-13T11:53:10.938336,1.00274204,.00027727,0.0792,310.9960,177.7782,9.4050,0,U,39285,999,4668,0,.147E-5,0
FM-6,2013-058A,2026-07-13T14:37:18.348096,1.00267432,.00012301,0.0138,31.1834,152.2695,210.9965,0,U,39360,999,4633,0,-.19E-6,0
RADUGA-1M 3,2013-062A,2026-07-13T06:47:10.610016,1.00271185,.0001973,6.0224,72.0187,271.7598,84.1519,0,U,39375,999,4636,0,.145E-5,0
SES-8,2013-071A,2026-07-13T07:04:08.984352,1.00270292,.0002578,0.0473,259.1662,213.1338,19.9069,0,U,39460,999,4469,0,-.272E-5,0
INMARSAT 5-F1,2013-073A,2026-07-13T10:20:23.712000,1.00271479,.00004884,0.0176,38.3771,258.9239,211.7384,0,U,39476,999,4584,0,.24E-6,0
TKSAT-1 (TUPAC KATARI),2013-075A,2026-07-13T14:45:40.046112,1.00270678,.00023223,0.0479,228.1650,240.7232,316.8206,0,U,39481,999,4586,0,-.199E-5,0
EXPRESS-AM5,2013-077A,2026-07-13T14:56:38.733792,1.00272030,.00002411,0.0181,304.4433,302.1733,49.0752,0,U,39487,999,4662,0,-.284E-5,0
GSAT-14,2014-001A,2026-07-13T13:48:57.132000,1.00270799,.00018832,0.0174,59.4322,154.3657,358.8543,0,U,39498,999,4564,0,-.8E-6,0
THAICOM 6,2014-002A,2026-07-13T13:50:12.012288,1.00272701,.00042181,0.0462,114.3787,10.3769,92.7259,0,U,39500,999,4572,0,-.125E-5,0
TDRS 12,2014-004A,2026-07-13T11:33:27.828576,1.00272953,.00043351,4.0031,19.5086,204.4697,199.8745,0,U,39504,999,4454,0,-.275E-5,0
ABS-2,2014-006A,2026-07-13T13:49:12.107712,1.00271137,.00032683,0.0156,340.0703,117.9413,115.6481,0,U,39508,999,4554,0,-.9E-6,0
ATHENA-FIDUS,2014-006B,2026-07-13T13:38:37.309632,1.00270623,.00012511,0.0201,99.8947,16.2638,57.7278,0,U,39509,999,4535,0,.15E-5,0
TURKSAT 4A,2014-007A,2026-07-13T13:39:52.189920,1.00273131,.00012293,0.0621,286.6911,324.1657,287.5492,0,U,39522,999,4523,0,.142E-5,0
EXPRESS-AT1,2014-010A,2026-07-13T12:03:54.908640,1.00308770,.00044001,0.3221,85.3781,55.4477,37.1881,0,U,39612,999,4508,0,-.1E-6,0
EXPRESS-AT2,2014-010B,2026-07-12T21:31:38.606304,1.00272197,.00006973,0.0246,37.9199,260.8694,10.9094,0,U,39613,999,4475,0,0,0
AMAZONAS 4A,2014-011A,2026-07-13T13:06:40.372704,1.00269959,.00046499,0.0597,199.5172,298.6014,275.9769,0,U,39616,999,4497,0,-.256E-5,0
ASTRA 5B,2014-011B,2026-07-13T11:51:56.058048,1.00273336,.00019799,0.0808,299.9472,189.5438,3.3742,0,U,39617,999,4493,0,.134E-5,0
IRNSS-1B,2014-017A,2026-07-12T17:11:35.649312,1.00275003,.00223228,28.8793,239.9624,191.7120,171.9393,0,U,39635,999,4505,0,.145E-5,0
LUCH-5V,2014-023A,2026-07-13T13:54:49.068576,1.00274315,.00020721,5.1945,69.4625,82.2563,83.1453,0,U,39727,999,4462,0,-.277E-5,0
KAZSAT-3,2014-023B,2026-07-13T10:19:16.320000,1.00270931,.0000353,0.0111,6.0561,273.1581,225.4035,0,U,39728,999,4272,0,.57E-6,0
EUTELSAT 3B,2014-030A,2026-07-13T13:28:45.754752,1.00270393,.00040653,0.0608,357.1820,117.4762,22.0548,0,U,39773,999,4433,0,.16E-6,0
ASIASAT 8 (AMOS-7),2014-046A,2026-07-13T13:57:48.782304,1.00268138,.00013158,0.0170,18.8934,108.6716,118.6248,0,U,40107,999,10241,0,-.336E-5,0
ASIASAT 6,2014-052A,2026-07-13T13:43:40.861344,1.00271242,.00006974,0.0180,41.4382,115.5131,100.3286,0,U,40141,999,4334,0,-.366E-5,0
OPTUS 10,2014-054A,2026-07-13T12:13:38.710848,1.00270752,.00019769,0.0394,279.7326,193.3951,157.6732,0,U,40146,999,4329,0,-.151E-5,0
MEASAT-3B,2014-054B,2026-07-13T13:53:56.653152,1.00269935,.00033943,0.0408,48.3292,19.7236,163.3710,0,U,40147,999,4317,0,-.245E-5,0
HIMAWARI-8,2014-060A,2026-07-13T14:07:58.659168,1.00271941,.00010599,0.0150,324.2157,205.6284,114.2809,0,U,40267,999,4302,0,-.28E-5,0
IRNSS-1C,2014-061A,2026-07-12T21:07:20.292672,1.00272709,.00221221,6.5810,88.4431,5.2065,236.9875,0,U,40269,999,4294,0,-.17E-5,0
INTELSAT 30 (IS-30),2014-062A,2026-07-12T19:54:01.234080,1.00273200,.00011997,0.0165,46.9734,336.3929,110.8103,0,U,40271,999,705,0,-.152E-5,0
ARSAT 1,2014-062B,2026-07-13T14:49:39.664416,1.00270344,.00016956,0.0421,287.4353,184.1557,330.5118,0,U,40272,999,4289,0,-.264E-5,0
EUTELSAT 53A,2014-064A,2026-07-13T01:44:26.656800,1.00273359,.00018964,0.0162,314.6267,239.9356,175.5019,0,U,40277,999,4182,0,.96E-6,0
GSAT-16,2014-078A,2026-07-13T14:44:38.885280,1.00272928,.00072256,0.0152,351.5316,100.7558,115.4471,0,U,40332,999,4237,0,.8E-6,0
DIRECTV 14,2014-078B,2026-07-13T14:42:10.380960,1.00270302,.0000472,0.0137,46.4346,282.3115,84.0369,0,U,40333,999,4230,0,-.129E-5,0
YAMAL 401,2014-082A,2026-07-13T13:53:26.700864,1.00271517,.00001138,0.0050,19.4351,206.6472,3.6645,0,U,40345,999,4218,0,-.232E-5,0
ASTRA 2G,2014-089A,2026-07-13T11:53:18.425760,1.00274391,.00041871,0.0497,22.2578,56.3275,59.3417,0,U,40364,999,4223,0,.146E-5,0
FENGYUN 2G,2014-090A,2026-07-13T15:38:43.963872,1.00260636,.0004211,5.7034,72.4939,153.4306,39.5189,0,U,40367,999,4226,0,-.307E-5,0
MUOS-3,2015-002A,2026-07-13T09:58:03.354240,1.00269827,.00534148,4.5699,43.6221,177.3651,204.2757,0,U,40374,999,4185,0,-.136E-5,0
INMARSAT 5-F2,2015-005A,2026-07-13T02:56:12.522624,1.00271327,.00003763,0.0187,29.5311,66.5584,183.9611,0,U,40384,999,4125,0,-.287E-5,0
ABS-3A,2015-010A,2026-07-13T08:19:04.268352,1.00269950,.00016781,0.0120,34.5976,26.7523,351.6605,0,U,40424,999,4163,0,-.3E-6,0
EUTELSAT 115 WEST B,2015-010B,2026-07-12T14:40:37.705728,1.00271195,.00003721,0.0077,162.3972,285.0504,308.3118,0,U,40425,999,4163,0,-.24E-6,0
EXPRESS-AM7,2015-012A,2026-07-13T13:39:14.750208,1.00269406,.00026761,0.0031,112.6985,7.7793,55.7612,0,U,40505,999,4127,0,.147E-5,0
BEIDOU-3S IGSO-1S,2015-019A,2026-07-02T19:12:21.705408,1.00680073,.00768606,49.1798,295.2769,219.1125,144.2493,0,U,40549,999,4123,0,-.19E-5,0
THOR 7,2015-022A,2026-07-13T13:27:30.875328,1.00271330,.00022828,0.0156,104.0612,10.8833,17.7042,0,U,40613,999,4108,0,-.13E-6,0
TURKMENALEM52E/MONACOSAT,2015-023A,2026-07-13T13:42:44.415360,1.00270426,.00025753,0.0269,81.4510,39.8886,67.7931,0,U,40617,999,4111,0,.1E-5,0
DIRECTV 15,2015-026A,2026-07-13T12:21:38.618784,1.00272384,.00000657,0.0179,71.5022,256.9146,45.5133,0,U,40663,999,4072,0,-.106E-5,0
SKY MEXICO-1,2015-026B,2026-07-13T13:05:25.493280,1.00270449,.00023233,0.0185,24.1423,111.3004,273.5319,0,U,40664,999,4071,0,-.238E-5,0
METEOSAT-11 (MSG-4),2015-034A,2026-07-13T04:57:16.369344,1.00271240,.0002213,3.2644,70.9465,353.5989,310.1074,0,U,40732,999,747,0,.56E-6,0
STAR ONE C4,2015-034B,2026-07-12T11:28:04.226016,1.00270005,.00012949,0.0237,346.4388,104.1987,301.7496,0,U,40733,999,4026,0,-.264E-5,0
WGS F7 (USA 263),2015-036A,2026-07-13T11:57:38.870784,1.00270727,.00001946,0.0134,28.7320,147.3194,109.7367,0,U,40746,999,4013,0,.14E-6,0
INTELSAT 34 (IS-34),2015-039A,2026-07-13T02:29:54.049920,1.00271511,.0000492,0.0107,1.3438,353.9217,277.7081,0,U,40874,999,3989,0,-.287E-5,0
EUTELSAT 8 WEST B,2015-039B,2026-07-13T13:25:23.577888,1.00271657,.00038513,0.0650,344.9975,121.2268,18.5573,0,U,40875,999,3992,0,-.7E-6,0
GSAT-6,2015-041A,2026-07-13T13:51:26.891712,1.00273450,.00030336,1.9852,82.2663,26.3676,113.1664,0,U,40880,999,3986,0,-.166E-5,0
INMARSAT 5-F3,2015-042A,2026-07-12T19:29:48.554592,1.00270103,.00003375,0.0181,33.1392,168.3559,201.2386,0,U,40882,999,3982,0,.49E-6,0
MUOS-4,2015-044A,2026-07-13T13:49:19.596000,1.00271138,.00565226,4.3780,42.3826,3.3808,168.0022,0,U,40887,999,3982,0,-.99E-6,0
TJS-1,2015-046A,2026-07-13T15:18:31.739904,1.00272853,.0004928,0.3892,84.7610,17.9348,213.4766,0,U,40892,999,3983,0,-.16E-5,0
EXPRESS-AM8,2015-048A,2026-07-13T01:25:13.499328,1.00259882,.00008256,0.0150,316.9781,334.8467,6.4128,0,U,40895,999,3960,0,-.115E-5,0
BEIDOU-3S IGSO-2S,2015-053A,2026-07-13T03:38:30.967584,1.00253027,.00662574,49.1819,258.4722,193.0931,347.6232,0,U,40938,999,3961,0,-.87E-6,0
SKY MUSTER 1 (NBN1A),2015-054A,2026-07-12T22:43:59.971296,1.00271108,.00016549,0.0174,16.8448,101.1615,294.0737,0,U,40940,999,3951,0,0,0
ARSAT 2,2015-054B,2026-07-13T13:04:40.564416,1.00270532,.00018129,0.0397,286.8573,179.3979,300.3331,0,U,40941,999,3956,0,-.229E-5,0
MORELOS 3,2015-056A,2026-07-13T14:38:18.251808,1.00272916,.00003685,3.2086,15.7427,140.2647,241.9665,0,U,40946,999,3955,0,-.49E-6,0
APSTAR-9,2015-059A,2026-07-13T14:56:38.733792,1.00272250,.00030585,0.0210,40.7157,147.4701,109.4828,0,U,40982,999,3938,0,-.27E-5,0
TURKSAT 4B,2015-060A,2026-07-13T13:42:06.974784,1.00271853,.00023482,0.0159,43.4710,76.5333,66.9296,0,U,40984,999,3936,0,.111E-5,0
ZHONGXING-2C,2015-063A,2026-07-13T07:06:46.233216,1.00272822,.0008003,0.3376,88.6879,100.8186,311.8010,0,U,41021,999,3924,0,-.327E-5,0
GSAT-15,2015-065A,2026-07-13T13:54:34.092864,1.00268338,.00035684,0.0265,59.1088,34.1205,140.3808,0,U,41028,999,3906,0,0,0
BADR-7 (ARABSAT-6B),2015-065B,2026-07-13T13:35:15.132768,1.00274896,.0005183,0.0197,259.3726,304.4511,317.4422,0,U,41029,999,3903,0,0,0
LAOSAT 1,2015-067A,2026-07-13T07:13:53.050080,1.00269332,.0002144,0.0362,140.6237,278.3538,109.1831,0,U,41034,999,3912,0,-.346E-5,0
